[{"OBJECT_NAME":"AETHER-11","OBJECT_ID":"2026-004V","EPOCH":"2026-03-09T21:44:33.405216","MEAN_MOTION":14.88107739,"ECCENTRICITY":0.00061342,"INCLINATION":97.803,"RA_OF_ASC_NODE":69.143,"ARG_OF_PERICENTER":88.5801,"MEAN_ANOMALY":271.6118,"EPHEMERIS_TYPE":0,"CLASSIFICATION_TYPE":"U","NORAD_CAT_ID":67382,"ELEMENT_SET_NO":999,"REV_AT_EPOCH":852,"BSTAR":0.00016474653,"MEAN_MOTION_DOT":1.462e-5,"MEAN_MOTION_DDOT":0},{"OBJECT_NAME":"COSMOS 2251 DEB","OBJECT_ID":"1993-036KP","EPOCH":"2026-03-09T11:34:45.143616","MEAN_MOTION":14.98033379,"ECCENTRICITY":0.0061647,"INCLINATION":73.9497,"RA_OF_ASC_NODE":73.2248,"ARG_OF_PERICENTER":244.1722,"MEAN_ANOMALY":240.8942,"EPHEMERIS_TYPE":0,"CLASSIFICATION_TYPE":"U","NORAD_CAT_ID":34118,"ELEMENT_SET_NO":999,"REV_AT_EPOCH":90473,"BSTAR":0.001884933,"MEAN_MOTION_DOT":0.00023205,"MEAN_MOTION_DDOT":0}]
